{
"type": "FeatureCollection",
"name": "crd_boundaries",
"crs": { "type": "name", "properties": { "name": "urn:ogc:def:crs:OGC:1.3:CRS84" } },
"features": [
{ "type": "Feature", "properties": { "crd_id": "IA10", "crd_name": "IA District 10", "state": "IA" }, "geometry": { "type": "Polygon", "coordinates": [ [ [ -94.473333333333329, 42.456666666666663 ], [ -94.473333333333329, 43.5 ], [ -96.64, 43.5 ], [ -96.64, 42.456666666666663 ], [ -94.473333333333329, 42.456666666666663 ] ] ] } },
{ "type": "Feature", "properties": { "crd_id": "IA20", "crd_name": "IA District 20", "state": "IA" }, "geometry": { "type": "Polygon", "coordinates": [ [ [ -92.306666666666658, 42.456666666666663 ], [ -92.306666666666658, 43.5 ], [ -94.473333333333329, 43.5 ], [ -94.473333333333329, 42.456666666666663 ], [ -92.306666666666658, 42.456666666666663 ] ] ] } },
{ "type": "Feature", "properties": { "crd_id": "IA30", "crd_name": "IA District 30", "state": "IA" }, "geometry": { "type": "Polygon", "coordinates": [ [ [ -90.14, 42.456666666666663 ], [ -90.14, 43.5 ], [ -92.306666666666672, 43.5 ], [ -92.306666666666672, 42.456666666666663 ], [ -90.14, 42.456666666666663 ] ] ] } },
{ "type": "Feature", "properties": { "crd_id": "IA40", "crd_name": "IA District 40", "state": "IA" }, "geometry": { "type": "Polygon", "coordinates": [ [ [ -94.473333333333329, 41.413333333333334 ], [ -94.473333333333329, 42.456666666666671 ], [ -96.64, 42.456666666666671 ], [ -96.64, 41.413333333333334 ], [ -94.473333333333329, 41.413333333333334 ] ] ] } },
{ "type": "Feature", "properties": { "crd_id": "IA50", "crd_name": "IA District 50", "state": "IA" }, "geometry": { "type": "Polygon", "coordinates": [ [ [ -92.306666666666658, 41.413333333333334 ], [ -92.306666666666658, 42.456666666666671 ], [ -94.473333333333329, 42.456666666666671 ], [ -94.473333333333329, 41.413333333333334 ], [ -92.306666666666658, 41.413333333333334 ] ] ] } },
{ "type": "Feature", "properties": { "crd_id": "IA60", "crd_name": "IA District 60", "state": "IA" }, "geometry": { "type": "Polygon", "coordinates": [ [ [ -90.14, 41.413333333333334 ], [ -90.14, 42.456666666666671 ], [ -92.306666666666672, 42.456666666666671 ], [ -92.306666666666672, 41.413333333333334 ], [ -90.14, 41.413333333333334 ] ] ] } },
{ "type": "Feature", "properties": { "crd_id": "IA70", "crd_name": "IA District 70", "state": "IA" }, "geometry": { "type": "Polygon", "coordinates": [ [ [ -94.473333333333329, 40.37 ], [ -94.473333333333329, 41.413333333333334 ], [ -96.64, 41.413333333333334 ], [ -96.64, 40.37 ], [ -94.473333333333329, 40.37 ] ] ] } },
{ "type": "Feature", "properties": { "crd_id": "IA80", "crd_name": "IA District 80", "state": "IA" }, "geometry": { "type": "Polygon", "coordinates": [ [ [ -92.306666666666658, 40.37 ], [ -92.306666666666658, 41.413333333333334 ], [ -94.473333333333329, 41.413333333333334 ], [ -94.473333333333329, 40.37 ], [ -92.306666666666658, 40.37 ] ] ] } },
{ "type": "Feature", "properties": { "crd_id": "IA90", "crd_name": "IA District 90", "state": "IA" }, "geometry": { "type": "Polygon", "coordinates": [ [ [ -90.14, 40.37 ], [ -90.14, 41.413333333333334 ], [ -92.306666666666672, 41.413333333333334 ], [ -92.306666666666672, 40.37 ], [ -90.14, 40.37 ] ] ] } },
{ "type": "Feature", "properties": { "crd_id": "IL10", "crd_name": "IL District 10", "state": "IL" }, "geometry": { "type": "Polygon", "coordinates": [ [ [ -90.013333333333335, 40.663333333333334 ], [ -90.013333333333335, 42.51 ], [ -91.51, 42.51 ], [ -91.51, 40.663333333333334 ], [ -90.013333333333335, 40.663333333333334 ] ] ] } },
{ "type": "Feature", "properties": { "crd_id": "IL20", "crd_name": "IL District 20", "state": "IL" }, "geometry": { "type": "Polygon", "coordinates": [ [ [ -88.516666666666666, 40.663333333333334 ], [ -88.516666666666666, 42.51 ], [ -90.013333333333335, 42.51 ], [ -90.013333333333335, 40.663333333333334 ], [ -88.516666666666666, 40.663333333333334 ] ] ] } },
{ "type": "Feature", "properties": { "crd_id": "IL30", "crd_name": "IL District 30", "state": "IL" }, "geometry": { "type": "Polygon", "coordinates": [ [ [ -87.02, 40.663333333333334 ], [ -87.02, 42.51 ], [ -88.516666666666666, 42.51 ], [ -88.516666666666666, 40.663333333333334 ], [ -87.02, 40.663333333333334 ] ] ] } },
{ "type": "Feature", "properties": { "crd_id": "IL40", "crd_name": "IL District 40", "state": "IL" }, "geometry": { "type": "Polygon", "coordinates": [ [ [ -90.013333333333335, 38.816666666666663 ], [ -90.013333333333335, 40.663333333333327 ], [ -91.51, 40.663333333333327 ], [ -91.51, 38.816666666666663 ], [ -90.013333333333335, 38.816666666666663 ] ] ] } },
{ "type": "Feature", "properties": { "crd_id": "IL50", "crd_name": "IL District 50", "state": "IL" }, "geometry": { "type": "Polygon", "coordinates": [ [ [ -88.516666666666666, 38.816666666666663 ], [ -88.516666666666666, 40.663333333333327 ], [ -90.013333333333335, 40.663333333333327 ], [ -90.013333333333335, 38.816666666666663 ], [ -88.516666666666666, 38.816666666666663 ] ] ] } },
{ "type": "Feature", "properties": { "crd_id": "IL60", "crd_name": "IL District 60", "state": "IL" }, "geometry": { "type": "Polygon", "coordinates": [ [ [ -87.02, 38.816666666666663 ], [ -87.02, 40.663333333333327 ], [ -88.516666666666666, 40.663333333333327 ], [ -88.516666666666666, 38.816666666666663 ], [ -87.02, 38.816666666666663 ] ] ] } },
{ "type": "Feature", "properties": { "crd_id": "IL70", "crd_name": "IL District 70", "state": "IL" }, "geometry": { "type": "Polygon", "coordinates": [ [ [ -90.013333333333335, 36.97 ], [ -90.013333333333335, 38.816666666666663 ], [ -91.51, 38.816666666666663 ], [ -91.51, 36.97 ], [ -90.013333333333335, 36.97 ] ] ] } },
{ "type": "Feature", "properties": { "crd_id": "IL80", "crd_name": "IL District 80", "state": "IL" }, "geometry": { "type": "Polygon", "coordinates": [ [ [ -88.516666666666666, 36.97 ], [ -88.516666666666666, 38.816666666666663 ], [ -90.013333333333335, 38.816666666666663 ], [ -90.013333333333335, 36.97 ], [ -88.516666666666666, 36.97 ] ] ] } },
{ "type": "Feature", "properties": { "crd_id": "IL90", "crd_name": "IL District 90", "state": "IL" }, "geometry": { "type": "Polygon", "coordinates": [ [ [ -87.02, 36.97 ], [ -87.02, 38.816666666666663 ], [ -88.516666666666666, 38.816666666666663 ], [ -88.516666666666666, 36.97 ], [ -87.02, 36.97 ] ] ] } },
{ "type": "Feature", "properties": { "crd_id": "IN10", "crd_name": "IN District 10", "state": "IN" }, "geometry": { "type": "Polygon", "coordinates": [ [ [ -86.993333333333325, 40.43 ], [ -86.993333333333325, 41.76 ], [ -88.1, 41.76 ], [ -88.1, 40.43 ], [ -86.993333333333325, 40.43 ] ] ] } },
{ "type": "Feature", "properties": { "crd_id": "IN20", "crd_name": "IN District 20", "state": "IN" }, "geometry": { "type": "Polygon", "coordinates": [ [ [ -85.886666666666656, 40.43 ], [ -85.886666666666656, 41.76 ], [ -86.993333333333325, 41.76 ], [ -86.993333333333325, 40.43 ], [ -85.886666666666656, 40.43 ] ] ] } },
{ "type": "Feature", "properties": { "crd_id": "IN30", "crd_name": "IN District 30", "state": "IN" }, "geometry": { "type": "Polygon", "coordinates": [ [ [ -84.78, 40.43 ], [ -84.78, 41.76 ], [ -85.88666666666667, 41.76 ], [ -85.88666666666667, 40.43 ], [ -84.78, 40.43 ] ] ] } },
{ "type": "Feature", "properties": { "crd_id": "IN40", "crd_name": "IN District 40", "state": "IN" }, "geometry": { "type": "Polygon", "coordinates": [ [ [ -86.993333333333325, 39.1 ], [ -86.993333333333325, 40.43 ], [ -88.1, 40.43 ], [ -88.1, 39.1 ], [ -86.993333333333325, 39.1 ] ] ] } },
{ "type": "Feature", "properties": { "crd_id": "IN50", "crd_name": "IN District 50", "state": "IN" }, "geometry": { "type": "Polygon", "coordinates": [ [ [ -85.886666666666656, 39.1 ], [ -85.886666666666656, 40.43 ], [ -86.993333333333325, 40.43 ], [ -86.993333333333325, 39.1 ], [ -85.886666666666656, 39.1 ] ] ] } },
{ "type": "Feature", "properties": { "crd_id": "IN60", "crd_name": "IN District 60", "state": "IN" }, "geometry": { "type": "Polygon", "coordinates": [ [ [ -84.78, 39.1 ], [ -84.78, 40.43 ], [ -85.88666666666667, 40.43 ], [ -85.88666666666667, 39.1 ], [ -84.78, 39.1 ] ] ] } },
{ "type": "Feature", "properties": { "crd_id": "IN70", "crd_name": "IN District 70", "state": "IN" }, "geometry": { "type": "Polygon", "coordinates": [ [ [ -86.993333333333325, 37.77 ], [ -86.993333333333325, 39.1 ], [ -88.1, 39.1 ], [ -88.1, 37.77 ], [ -86.993333333333325, 37.77 ] ] ] } },
{ "type": "Feature", "properties": { "crd_id": "IN80", "crd_name": "IN District 80", "state": "IN" }, "geometry": { "type": "Polygon", "coordinates": [ [ [ -85.886666666666656, 37.77 ], [ -85.886666666666656, 39.1 ], [ -86.993333333333325, 39.1 ], [ -86.993333333333325, 37.77 ], [ -85.886666666666656, 37.77 ] ] ] } },
{ "type": "Feature", "properties": { "crd_id": "IN90", "crd_name": "IN District 90", "state": "IN" }, "geometry": { "type": "Polygon", "coordinates": [ [ [ -84.78, 37.77 ], [ -84.78, 39.1 ], [ -85.88666666666667, 39.1 ], [ -85.88666666666667, 37.77 ], [ -84.78, 37.77 ] ] ] } },
{ "type": "Feature", "properties": { "crd_id": "OH10", "crd_name": "OH District 10", "state": "OH" }, "geometry": { "type": "Polygon", "coordinates": [ [ [ -83.386666666666656, 40.786666666666662 ], [ -83.386666666666656, 41.98 ], [ -84.82, 41.98 ], [ -84.82, 40.786666666666662 ], [ -83.386666666666656, 40.786666666666662 ] ] ] } },
{ "type": "Feature", "properties": { "crd_id": "OH20", "crd_name": "OH District 20", "state": "OH" }, "geometry": { "type": "Polygon", "coordinates": [ [ [ -81.953333333333319, 40.786666666666662 ], [ -81.953333333333319, 41.98 ], [ -83.386666666666656, 41.98 ], [ -83.386666666666656, 40.786666666666662 ], [ -81.953333333333319, 40.786666666666662 ] ] ] } },
{ "type": "Feature", "properties": { "crd_id": "OH30", "crd_name": "OH District 30", "state": "OH" }, "geometry": { "type": "Polygon", "coordinates": [ [ [ -80.52, 40.786666666666662 ], [ -80.52, 41.98 ], [ -81.953333333333333, 41.98 ], [ -81.953333333333333, 40.786666666666662 ], [ -80.52, 40.786666666666662 ] ] ] } },
{ "type": "Feature", "properties": { "crd_id": "OH40", "crd_name": "OH District 40", "state": "OH" }, "geometry": { "type": "Polygon", "coordinates": [ [ [ -83.386666666666656, 39.593333333333334 ], [ -83.386666666666656, 40.786666666666669 ], [ -84.82, 40.786666666666669 ], [ -84.82, 39.593333333333334 ], [ -83.386666666666656, 39.593333333333334 ] ] ] } },
{ "type": "Feature", "properties": { "crd_id": "OH50", "crd_name": "OH District 50", "state": "OH" }, "geometry": { "type": "Polygon", "coordinates": [ [ [ -81.953333333333319, 39.593333333333334 ], [ -81.953333333333319, 40.786666666666669 ], [ -83.386666666666656, 40.786666666666669 ], [ -83.386666666666656, 39.593333333333334 ], [ -81.953333333333319, 39.593333333333334 ] ] ] } },
{ "type": "Feature", "properties": { "crd_id": "OH60", "crd_name": "OH District 60", "state": "OH" }, "geometry": { "type": "Polygon", "coordinates": [ [ [ -80.52, 39.593333333333334 ], [ -80.52, 40.786666666666669 ], [ -81.953333333333333, 40.786666666666669 ], [ -81.953333333333333, 39.593333333333334 ], [ -80.52, 39.593333333333334 ] ] ] } },
{ "type": "Feature", "properties": { "crd_id": "OH70", "crd_name": "OH District 70", "state": "OH" }, "geometry": { "type": "Polygon", "coordinates": [ [ [ -83.386666666666656, 38.4 ], [ -83.386666666666656, 39.593333333333334 ], [ -84.82, 39.593333333333334 ], [ -84.82, 38.4 ], [ -83.386666666666656, 38.4 ] ] ] } },
{ "type": "Feature", "properties": { "crd_id": "OH80", "crd_name": "OH District 80", "state": "OH" }, "geometry": { "type": "Polygon", "coordinates": [ [ [ -81.953333333333319, 38.4 ], [ -81.953333333333319, 39.593333333333334 ], [ -83.386666666666656, 39.593333333333334 ], [ -83.386666666666656, 38.4 ], [ -81.953333333333319, 38.4 ] ] ] } },
{ "type": "Feature", "properties": { "crd_id": "OH90", "crd_name": "OH District 90", "state": "OH" }, "geometry": { "type": "Polygon", "coordinates": [ [ [ -80.52, 38.4 ], [ -80.52, 39.593333333333334 ], [ -81.953333333333333, 39.593333333333334 ], [ -81.953333333333333, 38.4 ], [ -80.52, 38.4 ] ] ] } },
{ "type": "Feature", "properties": { "crd_id": "MN10", "crd_name": "MN District 10", "state": "MN" }, "geometry": { "type": "Polygon", "coordinates": [ [ [ -94.656666666666666, 47.42 ], [ -94.656666666666666, 49.38 ], [ -97.24, 49.38 ], [ -97.24, 47.42 ], [ -94.656666666666666, 47.42 ] ] ] } },
{ "type": "Feature", "properties": { "crd_id": "MN20", "crd_name": "MN District 20", "state": "MN" }, "geometry": { "type": "Polygon", "coordinates": [ [ [ -92.073333333333338, 47.42 ], [ -92.073333333333338, 49.38 ], [ -94.656666666666666, 49.38 ], [ -94.656666666666666, 47.42 ], [ -92.073333333333338, 47.42 ] ] ] } },
{ "type": "Feature", "properties": { "crd_id": "MN30", "crd_name": "MN District 30", "state": "MN" }, "geometry": { "type": "Polygon", "coordinates": [ [ [ -89.49, 47.42 ], [ -89.49, 49.38 ], [ -92.073333333333323, 49.38 ], [ -92.073333333333323, 47.42 ], [ -89.49, 47.42 ] ] ] } },
{ "type": "Feature", "properties": { "crd_id": "MN40", "crd_name": "MN District 40", "state": "MN" }, "geometry": { "type": "Polygon", "coordinates": [ [ [ -94.656666666666666, 45.46 ], [ -94.656666666666666, 47.42 ], [ -97.24, 47.42 ], [ -97.24, 45.46 ], [ -94.656666666666666, 45.46 ] ] ] } },
{ "type": "Feature", "properties": { "crd_id": "MN50", "crd_name": "MN District 50", "state": "MN" }, "geometry": { "type": "Polygon", "coordinates": [ [ [ -92.073333333333338, 45.46 ], [ -92.073333333333338, 47.42 ], [ -94.656666666666666, 47.42 ], [ -94.656666666666666, 45.46 ], [ -92.073333333333338, 45.46 ] ] ] } },
{ "type": "Feature", "properties": { "crd_id": "MN60", "crd_name": "MN District 60", "state": "MN" }, "geometry": { "type": "Polygon", "coordinates": [ [ [ -89.49, 45.46 ], [ -89.49, 47.42 ], [ -92.073333333333323, 47.42 ], [ -92.073333333333323, 45.46 ], [ -89.49, 45.46 ] ] ] } },
{ "type": "Feature", "properties": { "crd_id": "MN70", "crd_name": "MN District 70", "state": "MN" }, "geometry": { "type": "Polygon", "coordinates": [ [ [ -94.656666666666666, 43.5 ], [ -94.656666666666666, 45.46 ], [ -97.24, 45.46 ], [ -97.24, 43.5 ], [ -94.656666666666666, 43.5 ] ] ] } },
{ "type": "Feature", "properties": { "crd_id": "MN80", "crd_name": "MN District 80", "state": "MN" }, "geometry": { "type": "Polygon", "coordinates": [ [ [ -92.073333333333338, 43.5 ], [ -92.073333333333338, 45.46 ], [ -94.656666666666666, 45.46 ], [ -94.656666666666666, 43.5 ], [ -92.073333333333338, 43.5 ] ] ] } },
{ "type": "Feature", "properties": { "crd_id": "MN90", "crd_name": "MN District 90", "state": "MN" }, "geometry": { "type": "Polygon", "coordinates": [ [ [ -89.49, 43.5 ], [ -89.49, 45.46 ], [ -92.073333333333323, 45.46 ], [ -92.073333333333323, 43.5 ], [ -89.49, 43.5 ] ] ] } },
{ "type": "Feature", "properties": { "crd_id": "WI10", "crd_name": "WI District 10", "state": "WI" }, "geometry": { "type": "Polygon", "coordinates": [ [ [ -90.676666666666662, 45.55 ], [ -90.676666666666662, 47.08 ], [ -92.89, 47.08 ], [ -92.89, 45.55 ], [ -90.676666666666662, 45.55 ] ] ] } },
{ "type": "Feature", "properties": { "crd_id": "WI20", "crd_name": "WI District 20", "state": "WI" }, "geometry": { "type": "Polygon", "coordinates": [ [ [ -88.463333333333324, 45.55 ], [ -88.463333333333324, 47.08 ], [ -90.676666666666662, 47.08 ], [ -90.676666666666662, 45.55 ], [ -88.463333333333324, 45.55 ] ] ] } },
{ "type": "Feature", "properties": { "crd_id": "WI30", "crd_name": "WI District 30", "state": "WI" }, "geometry": { "type": "Polygon", "coordinates": [ [ [ -86.25, 45.55 ], [ -86.25, 47.08 ], [ -88.463333333333338, 47.08 ], [ -88.463333333333338, 45.55 ], [ -86.25, 45.55 ] ] ] } },
{ "type": "Feature", "properties": { "crd_id": "WI40", "crd_name": "WI District 40", "state": "WI" }, "geometry": { "type": "Polygon", "coordinates": [ [ [ -90.676666666666662, 44.02 ], [ -90.676666666666662, 45.55 ], [ -92.89, 45.55 ], [ -92.89, 44.02 ], [ -90.676666666666662, 44.02 ] ] ] } },
{ "type": "Feature", "properties": { "crd_id": "WI50", "crd_name": "WI District 50", "state": "WI" }, "geometry": { "type": "Polygon", "coordinates": [ [ [ -88.463333333333324, 44.02 ], [ -88.463333333333324, 45.55 ], [ -90.676666666666662, 45.55 ], [ -90.676666666666662, 44.02 ], [ -88.463333333333324, 44.02 ] ] ] } },
{ "type": "Feature", "properties": { "crd_id": "WI60", "crd_name": "WI District 60", "state": "WI" }, "geometry": { "type": "Polygon", "coordinates": [ [ [ -86.25, 44.02 ], [ -86.25, 45.55 ], [ -88.463333333333338, 45.55 ], [ -88.463333333333338, 44.02 ], [ -86.25, 44.02 ] ] ] } },
{ "type": "Feature", "properties": { "crd_id": "WI70", "crd_name": "WI District 70", "state": "WI" }, "geometry": { "type": "Polygon", "coordinates": [ [ [ -90.676666666666662, 42.49 ], [ -90.676666666666662, 44.02 ], [ -92.89, 44.02 ], [ -92.89, 42.49 ], [ -90.676666666666662, 42.49 ] ] ] } },
{ "type": "Feature", "properties": { "crd_id": "WI80", "crd_name": "WI District 80", "state": "WI" }, "geometry": { "type": "Polygon", "coordinates": [ [ [ -88.463333333333324, 42.49 ], [ -88.463333333333324, 44.02 ], [ -90.676666666666662, 44.02 ], [ -90.676666666666662, 42.49 ], [ -88.463333333333324, 42.49 ] ] ] } },
{ "type": "Feature", "properties": { "crd_id": "WI90", "crd_name": "WI District 90", "state": "WI" }, "geometry": { "type": "Polygon", "coordinates": [ [ [ -86.25, 42.49 ], [ -86.25, 44.02 ], [ -88.463333333333338, 44.02 ], [ -88.463333333333338, 42.49 ], [ -86.25, 42.49 ] ] ] } },
{ "type": "Feature", "properties": { "crd_id": "MO10", "crd_name": "MO District 10", "state": "MO" }, "geometry": { "type": "Polygon", "coordinates": [ [ [ -93.546666666666667, 39.07 ], [ -93.546666666666667, 40.61 ], [ -95.77, 40.61 ], [ -95.77, 39.07 ], [ -93.546666666666667, 39.07 ] ] ] } },
{ "type": "Feature", "properties": { "crd_id": "MO20", "crd_name": "MO District 20", "state": "MO" }, "geometry": { "type": "Polygon", "coordinates": [ [ [ -91.323333333333338, 39.07 ], [ -91.323333333333338, 40.61 ], [ -93.546666666666667, 40.61 ], [ -93.546666666666667, 39.07 ], [ -91.323333333333338, 39.07 ] ] ] } },
{ "type": "Feature", "properties": { "crd_id": "MO30", "crd_name": "MO District 30", "state": "MO" }, "geometry": { "type": "Polygon", "coordinates": [ [ [ -89.1, 39.07 ], [ -89.1, 40.61 ], [ -91.323333333333323, 40.61 ], [ -91.323333333333323, 39.07 ], [ -89.1, 39.07 ] ] ] } },
{ "type": "Feature", "properties": { "crd_id": "MO40", "crd_name": "MO District 40", "state": "MO" }, "geometry": { "type": "Polygon", "coordinates": [ [ [ -93.546666666666667, 37.53 ], [ -93.546666666666667, 39.07 ], [ -95.77, 39.07 ], [ -95.77, 37.53 ], [ -93.546666666666667, 37.53 ] ] ] } },
{ "type": "Feature", "properties": { "crd_id": "MO50", "crd_name": "MO District 50", "state": "MO" }, "geometry": { "type": "Polygon", "coordinates": [ [ [ -91.323333333333338, 37.53 ], [ -91.323333333333338, 39.07 ], [ -93.546666666666667, 39.07 ], [ -93.546666666666667, 37.53 ], [ -91.323333333333338, 37.53 ] ] ] } },
{ "type": "Feature", "properties": { "crd_id": "MO60", "crd_name": "MO District 60", "state": "MO" }, "geometry": { "type": "Polygon", "coordinates": [ [ [ -89.1, 37.53 ], [ -89.1, 39.07 ], [ -91.323333333333323, 39.07 ], [ -91.323333333333323, 37.53 ], [ -89.1, 37.53 ] ] ] } },
{ "type": "Feature", "properties": { "crd_id": "MO70", "crd_name": "MO District 70", "state": "MO" }, "geometry": { "type": "Polygon", "coordinates": [ [ [ -93.546666666666667, 35.99 ], [ -93.546666666666667, 37.53 ], [ -95.77, 37.53 ], [ -95.77, 35.99 ], [ -93.546666666666667, 35.99 ] ] ] } },
{ "type": "Feature", "properties": { "crd_id": "MO80", "crd_name": "MO District 80", "state": "MO" }, "geometry": { "type": "Polygon", "coordinates": [ [ [ -91.323333333333338, 35.99 ], [ -91.323333333333338, 37.53 ], [ -93.546666666666667, 37.53 ], [ -93.546666666666667, 35.99 ], [ -91.323333333333338, 35.99 ] ] ] } },
{ "type": "Feature", "properties": { "crd_id": "MO90", "crd_name": "MO District 90", "state": "MO" }, "geometry": { "type": "Polygon", "coordinates": [ [ [ -89.1, 35.99 ], [ -89.1, 37.53 ], [ -91.323333333333323, 37.53 ], [ -91.323333333333323, 35.99 ], [ -89.1, 35.99 ] ] ] } },
{ "type": "Feature", "properties": { "crd_id": "KS10", "crd_name": "KS District 10", "state": "KS" }, "geometry": { "type": "Polygon", "coordinates": [ [ [ -99.563333333333333, 38.99666666666667 ], [ -99.563333333333333, 40.0 ], [ -102.05, 40.0 ], [ -102.05, 38.99666666666667 ], [ -99.563333333333333, 38.99666666666667 ] ] ] } },
{ "type": "Feature", "properties": { "crd_id": "KS20", "crd_name": "KS District 20", "state": "KS" }, "geometry": { "type": "Polygon", "coordinates": [ [ [ -97.076666666666668, 38.99666666666667 ], [ -97.076666666666668, 40.0 ], [ -99.563333333333333, 40.0 ], [ -99.563333333333333, 38.99666666666667 ], [ -97.076666666666668, 38.99666666666667 ] ] ] } },
{ "type": "Feature", "properties": { "crd_id": "KS30", "crd_name": "KS District 30", "state": "KS" }, "geometry": { "type": "Polygon", "coordinates": [ [ [ -94.59, 38.99666666666667 ], [ -94.59, 40.0 ], [ -97.076666666666668, 40.0 ], [ -97.076666666666668, 38.99666666666667 ], [ -94.59, 38.99666666666667 ] ] ] } },
{ "type": "Feature", "properties": { "crd_id": "KS40", "crd_name": "KS District 40", "state": "KS" }, "geometry": { "type": "Polygon", "coordinates": [ [ [ -99.563333333333333, 37.993333333333332 ], [ -99.563333333333333, 38.996666666666663 ], [ -102.05, 38.996666666666663 ], [ -102.05, 37.993333333333332 ], [ -99.563333333333333, 37.993333333333332 ] ] ] } },
{ "type": "Feature", "properties": { "crd_id": "KS50", "crd_name": "KS District 50", "state": "KS" }, "geometry": { "type": "Polygon", "coordinates": [ [ [ -97.076666666666668, 37.993333333333332 ], [ -97.076666666666668, 38.996666666666663 ], [ -99.563333333333333, 38.996666666666663 ], [ -99.563333333333333, 37.993333333333332 ], [ -97.076666666666668, 37.993333333333332 ] ] ] } },
{ "type": "Feature", "properties": { "crd_id": "KS60", "crd_name": "KS District 60", "state": "KS" }, "geometry": { "type": "Polygon", "coordinates": [ [ [ -94.59, 37.993333333333332 ], [ -94.59, 38.996666666666663 ], [ -97.076666666666668, 38.996666666666663 ], [ -97.076666666666668, 37.993333333333332 ], [ -94.59, 37.993333333333332 ] ] ] } },
{ "type": "Feature", "properties": { "crd_id": "KS70", "crd_name": "KS District 70", "state": "KS" }, "geometry": { "type": "Polygon", "coordinates": [ [ [ -99.563333333333333, 36.99 ], [ -99.563333333333333, 37.993333333333332 ], [ -102.05, 37.993333333333332 ], [ -102.05, 36.99 ], [ -99.563333333333333, 36.99 ] ] ] } },
{ "type": "Feature", "properties": { "crd_id": "KS80", "crd_name": "KS District 80", "state": "KS" }, "geometry": { "type": "Polygon", "coordinates": [ [ [ -97.076666666666668, 36.99 ], [ -97.076666666666668, 37.993333333333332 ], [ -99.563333333333333, 37.993333333333332 ], [ -99.563333333333333, 36.99 ], [ -97.076666666666668, 36.99 ] ] ] } },
{ "type": "Feature", "properties": { "crd_id": "KS90", "crd_name": "KS District 90", "state": "KS" }, "geometry": { "type": "Polygon", "coordinates": [ [ [ -94.59, 36.99 ], [ -94.59, 37.993333333333332 ], [ -97.076666666666668, 37.993333333333332 ], [ -97.076666666666668, 36.99 ], [ -94.59, 36.99 ] ] ] } },
{ "type": "Feature", "properties": { "crd_id": "NE10", "crd_name": "NE District 10", "state": "NE" }, "geometry": { "type": "Polygon", "coordinates": [ [ [ -101.13666666666667, 41.99666666666667 ], [ -101.13666666666667, 43.0 ], [ -104.05, 43.0 ], [ -104.05, 41.99666666666667 ], [ -101.13666666666667, 41.99666666666667 ] ] ] } },
{ "type": "Feature", "properties": { "crd_id": "NE20", "crd_name": "NE District 20", "state": "NE" }, "geometry": { "type": "Polygon", "coordinates": [ [ [ -98.223333333333343, 41.99666666666667 ], [ -98.223333333333343, 43.0 ], [ -101.13666666666667, 43.0 ], [ -101.13666666666667, 41.99666666666667 ], [ -98.223333333333343, 41.99666666666667 ] ] ] } },
{ "type": "Feature", "properties": { "crd_id": "NE30", "crd_name": "NE District 30", "state": "NE" }, "geometry": { "type": "Polygon", "coordinates": [ [ [ -95.31, 41.99666666666667 ], [ -95.31, 43.0 ], [ -98.223333333333329, 43.0 ], [ -98.223333333333329, 41.99666666666667 ], [ -95.31, 41.99666666666667 ] ] ] } },
{ "type": "Feature", "properties": { "crd_id": "NE40", "crd_name": "NE District 40", "state": "NE" }, "geometry": { "type": "Polygon", "coordinates": [ [ [ -101.13666666666667, 40.993333333333332 ], [ -101.13666666666667, 41.996666666666663 ], [ -104.05, 41.996666666666663 ], [ -104.05, 40.993333333333332 ], [ -101.13666666666667, 40.993333333333332 ] ] ] } },
{ "type": "Feature", "properties": { "crd_id": "NE50", "crd_name": "NE District 50", "state": "NE" }, "geometry": { "type": "Polygon", "coordinates": [ [ [ -98.223333333333343, 40.993333333333332 ], [ -98.223333333333343, 41.996666666666663 ], [ -101.13666666666667, 41.996666666666663 ], [ -101.13666666666667, 40.993333333333332 ], [ -98.223333333333343, 40.993333333333332 ] ] ] } },
{ "type": "Feature", "properties": { "crd_id": "NE60", "crd_name": "NE District 60", "state": "NE" }, "geometry": { "type": "Polygon", "coordinates": [ [ [ -95.31, 40.993333333333332 ], [ -95.31, 41.996666666666663 ], [ -98.223333333333329, 41.996666666666663 ], [ -98.223333333333329, 40.993333333333332 ], [ -95.31, 40.993333333333332 ] ] ] } },
{ "type": "Feature", "properties": { "crd_id": "NE70", "crd_name": "NE District 70", "state": "NE" }, "geometry": { "type": "Polygon", "coordinates": [ [ [ -101.13666666666667, 39.99 ], [ -101.13666666666667, 40.993333333333332 ], [ -104.05, 40.993333333333332 ], [ -104.05, 39.99 ], [ -101.13666666666667, 39.99 ] ] ] } },
{ "type": "Feature", "properties": { "crd_id": "NE80", "crd_name": "NE District 80", "state": "NE" }, "geometry": { "type": "Polygon", "coordinates": [ [ [ -98.223333333333343, 39.99 ], [ -98.223333333333343, 40.993333333333332 ], [ -101.13666666666667, 40.993333333333332 ], [ -101.13666666666667, 39.99 ], [ -98.223333333333343, 39.99 ] ] ] } },
{ "type": "Feature", "properties": { "crd_id": "NE90", "crd_name": "NE District 90", "state": "NE" }, "geometry": { "type": "Polygon", "coordinates": [ [ [ -95.31, 39.99 ], [ -95.31, 40.993333333333332 ], [ -98.223333333333329, 40.993333333333332 ], [ -98.223333333333329, 39.99 ], [ -95.31, 39.99 ] ] ] } },
{ "type": "Feature", "properties": { "crd_id": "SD10", "crd_name": "SD District 10", "state": "SD" }, "geometry": { "type": "Polygon", "coordinates": [ [ [ -101.52, 44.786666666666662 ], [ -101.52, 45.94 ], [ -104.06, 45.94 ], [ -104.06, 44.786666666666662 ], [ -101.52, 44.786666666666662 ] ] ] } },
{ "type": "Feature", "properties": { "crd_id": "SD20", "crd_name": "SD District 20", "state": "SD" }, "geometry": { "type": "Polygon", "coordinates": [ [ [ -98.98, 44.786666666666662 ], [ -98.98, 45.94 ], [ -101.52, 45.94 ], [ -101.52, 44.786666666666662 ], [ -98.98, 44.786666666666662 ] ] ] } },
{ "type": "Feature", "properties": { "crd_id": "SD30", "crd_name": "SD District 30", "state": "SD" }, "geometry": { "type": "Polygon", "coordinates": [ [ [ -96.44, 44.786666666666662 ], [ -96.44, 45.94 ], [ -98.98, 45.94 ], [ -98.98, 44.786666666666662 ], [ -96.44, 44.786666666666662 ] ] ] } },
{ "type": "Feature", "properties": { "crd_id": "SD40", "crd_name": "SD District 40", "state": "SD" }, "geometry": { "type": "Polygon", "coordinates": [ [ [ -101.52, 43.633333333333333 ], [ -101.52, 44.786666666666669 ], [ -104.06, 44.786666666666669 ], [ -104.06, 43.633333333333333 ], [ -101.52, 43.633333333333333 ] ] ] } },
{ "type": "Feature", "properties": { "crd_id": "SD50", "crd_name": "SD District 50", "state": "SD" }, "geometry": { "type": "Polygon", "coordinates": [ [ [ -98.98, 43.633333333333333 ], [ -98.98, 44.786666666666669 ], [ -101.52, 44.786666666666669 ], [ -101.52, 43.633333333333333 ], [ -98.98, 43.633333333333333 ] ] ] } },
{ "type": "Feature", "properties": { "crd_id": "SD60", "crd_name": "SD District 60", "state": "SD" }, "geometry": { "type": "Polygon", "coordinates": [ [ [ -96.44, 43.633333333333333 ], [ -96.44, 44.786666666666669 ], [ -98.98, 44.786666666666669 ], [ -98.98, 43.633333333333333 ], [ -96.44, 43.633333333333333 ] ] ] } },
{ "type": "Feature", "properties": { "crd_id": "SD70", "crd_name": "SD District 70", "state": "SD" }, "geometry": { "type": "Polygon", "coordinates": [ [ [ -101.52, 42.48 ], [ -101.52, 43.633333333333333 ], [ -104.06, 43.633333333333333 ], [ -104.06, 42.48 ], [ -101.52, 42.48 ] ] ] } },
{ "type": "Feature", "properties": { "crd_id": "SD80", "crd_name": "SD District 80", "state": "SD" }, "geometry": { "type": "Polygon", "coordinates": [ [ [ -98.98, 42.48 ], [ -98.98, 43.633333333333333 ], [ -101.52, 43.633333333333333 ], [ -101.52, 42.48 ], [ -98.98, 42.48 ] ] ] } },
{ "type": "Feature", "properties": { "crd_id": "SD90", "crd_name": "SD District 90", "state": "SD" }, "geometry": { "type": "Polygon", "coordinates": [ [ [ -96.44, 42.48 ], [ -96.44, 43.633333333333333 ], [ -98.98, 43.633333333333333 ], [ -98.98, 42.48 ], [ -96.44, 42.48 ] ] ] } },
{ "type": "Feature", "properties": { "crd_id": "ND10", "crd_name": "ND District 10", "state": "ND" }, "geometry": { "type": "Polygon", "coordinates": [ [ [ -101.55, 47.976666666666667 ], [ -101.55, 49.0 ], [ -104.05, 49.0 ], [ -104.05, 47.976666666666667 ], [ -101.55, 47.976666666666667 ] ] ] } },
{ "type": "Feature", "properties": { "crd_id": "ND20", "crd_name": "ND District 20", "state": "ND" }, "geometry": { "type": "Polygon", "coordinates": [ [ [ -99.05, 47.976666666666667 ], [ -99.05, 49.0 ], [ -101.55, 49.0 ], [ -101.55, 47.976666666666667 ], [ -99.05, 47.976666666666667 ] ] ] } },
{ "type": "Feature", "properties": { "crd_id": "ND30", "crd_name": "ND District 30", "state": "ND" }, "geometry": { "type": "Polygon", "coordinates": [ [ [ -96.55, 47.976666666666667 ], [ -96.55, 49.0 ], [ -99.05, 49.0 ], [ -99.05, 47.976666666666667 ], [ -96.55, 47.976666666666667 ] ] ] } },
{ "type": "Feature", "properties": { "crd_id": "ND40", "crd_name": "ND District 40", "state": "ND" }, "geometry": { "type": "Polygon", "coordinates": [ [ [ -101.55, 46.953333333333333 ], [ -101.55, 47.976666666666667 ], [ -104.05, 47.976666666666667 ], [ -104.05, 46.953333333333333 ], [ -101.55, 46.953333333333333 ] ] ] } },
{ "type": "Feature", "properties": { "crd_id": "ND50", "crd_name": "ND District 50", "state": "ND" }, "geometry": { "type": "Polygon", "coordinates": [ [ [ -99.05, 46.953333333333333 ], [ -99.05, 47.976666666666667 ], [ -101.55, 47.976666666666667 ], [ -101.55, 46.953333333333333 ], [ -99.05, 46.953333333333333 ] ] ] } },
{ "type": "Feature", "properties": { "crd_id": "ND60", "crd_name": "ND District 60", "state": "ND" }, "geometry": { "type": "Polygon", "coordinates": [ [ [ -96.55, 46.953333333333333 ], [ -96.55, 47.976666666666667 ], [ -99.05, 47.976666666666667 ], [ -99.05, 46.953333333333333 ], [ -96.55, 46.953333333333333 ] ] ] } },
{ "type": "Feature", "properties": { "crd_id": "ND70", "crd_name": "ND District 70", "state": "ND" }, "geometry": { "type": "Polygon", "coordinates": [ [ [ -101.55, 45.93 ], [ -101.55, 46.953333333333333 ], [ -104.05, 46.953333333333333 ], [ -104.05, 45.93 ], [ -101.55, 45.93 ] ] ] } },
{ "type": "Feature", "properties": { "crd_id": "ND80", "crd_name": "ND District 80", "state": "ND" }, "geometry": { "type": "Polygon", "coordinates": [ [ [ -99.05, 45.93 ], [ -99.05, 46.953333333333333 ], [ -101.55, 46.953333333333333 ], [ -101.55, 45.93 ], [ -99.05, 45.93 ] ] ] } },
{ "type": "Feature", "properties": { "crd_id": "ND90", "crd_name": "ND District 90", "state": "ND" }, "geometry": { "type": "Polygon", "coordinates": [ [ [ -96.55, 45.93 ], [ -96.55, 46.953333333333333 ], [ -99.05, 46.953333333333333 ], [ -99.05, 45.93 ], [ -96.55, 45.93 ] ] ] } },
{ "type": "Feature", "properties": { "crd_id": "MI10", "crd_name": "MI District 10", "state": "MI" }, "geometry": { "type": "Polygon", "coordinates": [ [ [ -87.75, 46.026666666666664 ], [ -87.75, 48.19 ], [ -90.42, 48.19 ], [ -90.42, 46.026666666666664 ], [ -87.75, 46.026666666666664 ] ] ] } },
{ "type": "Feature", "properties": { "crd_id": "MI20", "crd_name": "MI District 20", "state": "MI" }, "geometry": { "type": "Polygon", "coordinates": [ [ [ -85.08, 46.026666666666664 ], [ -85.08, 48.19 ], [ -87.75, 48.19 ], [ -87.75, 46.026666666666664 ], [ -85.08, 46.026666666666664 ] ] ] } },
{ "type": "Feature", "properties": { "crd_id": "MI30", "crd_name": "MI District 30", "state": "MI" }, "geometry": { "type": "Polygon", "coordinates": [ [ [ -82.41, 46.026666666666664 ], [ -82.41, 48.19 ], [ -85.08, 48.19 ], [ -85.08, 46.026666666666664 ], [ -82.41, 46.026666666666664 ] ] ] } },
{ "type": "Feature", "properties": { "crd_id": "MI40", "crd_name": "MI District 40", "state": "MI" }, "geometry": { "type": "Polygon", "coordinates": [ [ [ -87.75, 43.863333333333337 ], [ -87.75, 46.026666666666671 ], [ -90.42, 46.026666666666671 ], [ -90.42, 43.863333333333337 ], [ -87.75, 43.863333333333337 ] ] ] } },
{ "type": "Feature", "properties": { "crd_id": "MI50", "crd_name": "MI District 50", "state": "MI" }, "geometry": { "type": "Polygon", "coordinates": [ [ [ -85.08, 43.863333333333337 ], [ -85.08, 46.026666666666671 ], [ -87.75, 46.026666666666671 ], [ -87.75, 43.863333333333337 ], [ -85.08, 43.863333333333337 ] ] ] } },
{ "type": "Feature", "properties": { "crd_id": "MI60", "crd_name": "MI District 60", "state": "MI" }, "geometry": { "type": "Polygon", "coordinates": [ [ [ -82.41, 43.863333333333337 ], [ -82.41, 46.026666666666671 ], [ -85.08, 46.026666666666671 ], [ -85.08, 43.863333333333337 ], [ -82.41, 43.863333333333337 ] ] ] } },
{ "type": "Feature", "properties": { "crd_id": "MI70", "crd_name": "MI District 70", "state": "MI" }, "geometry": { "type": "Polygon", "coordinates": [ [ [ -87.75, 41.7 ], [ -87.75, 43.863333333333337 ], [ -90.42, 43.863333333333337 ], [ -90.42, 41.7 ], [ -87.75, 41.7 ] ] ] } },
{ "type": "Feature", "properties": { "crd_id": "MI80", "crd_name": "MI District 80", "state": "MI" }, "geometry": { "type": "Polygon", "coordinates": [ [ [ -85.08, 41.7 ], [ -85.08, 43.863333333333337 ], [ -87.75, 43.863333333333337 ], [ -87.75, 41.7 ], [ -85.08, 41.7 ] ] ] } },
{ "type": "Feature", "properties": { "crd_id": "MI90", "crd_name": "MI District 90", "state": "MI" }, "geometry": { "type": "Polygon", "coordinates": [ [ [ -82.41, 41.7 ], [ -82.41, 43.863333333333337 ], [ -85.08, 43.863333333333337 ], [ -85.08, 41.7 ], [ -82.41, 41.7 ] ] ] } },
{ "type": "Feature", "properties": { "crd_id": "KY10", "crd_name": "KY District 10", "state": "KY" }, "geometry": { "type": "Polygon", "coordinates": [ [ [ -87.033333333333331, 38.263333333333335 ], [ -87.033333333333331, 39.15 ], [ -89.57, 39.15 ], [ -89.57, 38.263333333333335 ], [ -87.033333333333331, 38.263333333333335 ] ] ] } },
{ "type": "Feature", "properties": { "crd_id": "KY20", "crd_name": "KY District 20", "state": "KY" }, "geometry": { "type": "Polygon", "coordinates": [ [ [ -84.49666666666667, 38.263333333333335 ], [ -84.49666666666667, 39.15 ], [ -87.033333333333331, 39.15 ], [ -87.033333333333331, 38.263333333333335 ], [ -84.49666666666667, 38.263333333333335 ] ] ] } },
{ "type": "Feature", "properties": { "crd_id": "KY30", "crd_name": "KY District 30", "state": "KY" }, "geometry": { "type": "Polygon", "coordinates": [ [ [ -81.96, 38.263333333333335 ], [ -81.96, 39.15 ], [ -84.496666666666655, 39.15 ], [ -84.496666666666655, 38.263333333333335 ], [ -81.96, 38.263333333333335 ] ] ] } },
{ "type": "Feature", "properties": { "crd_id": "KY40", "crd_name": "KY District 40", "state": "KY" }, "geometry": { "type": "Polygon", "coordinates": [ [ [ -87.033333333333331, 37.376666666666665 ], [ -87.033333333333331, 38.263333333333328 ], [ -89.57, 38.263333333333328 ], [ -89.57, 37.376666666666665 ], [ -87.033333333333331, 37.376666666666665 ] ] ] } },
{ "type": "Feature", "properties": { "crd_id": "KY50", "crd_name": "KY District 50", "state": "KY" }, "geometry": { "type": "Polygon", "coordinates": [ [ [ -84.49666666666667, 37.376666666666665 ], [ -84.49666666666667, 38.263333333333328 ], [ -87.033333333333331, 38.263333333333328 ], [ -87.033333333333331, 37.376666666666665 ], [ -84.49666666666667, 37.376666666666665 ] ] ] } },
{ "type": "Feature", "properties": { "crd_id": "KY60", "crd_name": "KY District 60", "state": "KY" }, "geometry": { "type": "Polygon", "coordinates": [ [ [ -81.96, 37.376666666666665 ], [ -81.96, 38.263333333333328 ], [ -84.496666666666655, 38.263333333333328 ], [ -84.496666666666655, 37.376666666666665 ], [ -81.96, 37.376666666666665 ] ] ] } },
{ "type": "Feature", "properties": { "crd_id": "KY70", "crd_name": "KY District 70", "state": "KY" }, "geometry": { "type": "Polygon", "coordinates": [ [ [ -87.033333333333331, 36.49 ], [ -87.033333333333331, 37.376666666666665 ], [ -89.57, 37.376666666666665 ], [ -89.57, 36.49 ], [ -87.033333333333331, 36.49 ] ] ] } },
{ "type": "Feature", "properties": { "crd_id": "KY80", "crd_name": "KY District 80", "state": "KY" }, "geometry": { "type": "Polygon", "coordinates": [ [ [ -84.49666666666667, 36.49 ], [ -84.49666666666667, 37.376666666666665 ], [ -87.033333333333331, 37.376666666666665 ], [ -87.033333333333331, 36.49 ], [ -84.49666666666667, 36.49 ] ] ] } },
{ "type": "Feature", "properties": { "crd_id": "KY90", "crd_name": "KY District 90", "state": "KY" }, "geometry": { "type": "Polygon", "coordinates": [ [ [ -81.96, 36.49 ], [ -81.96, 37.376666666666665 ], [ -84.496666666666655, 37.376666666666665 ], [ -84.496666666666655, 36.49 ], [ -81.96, 36.49 ] ] ] } },
{ "type": "Feature", "properties": { "crd_id": "PA10", "crd_name": "PA District 10", "state": "PA" }, "geometry": { "type": "Polygon", "coordinates": [ [ [ -78.576666666666668, 41.42 ], [ -78.576666666666668, 42.27 ], [ -80.52, 42.27 ], [ -80.52, 41.42 ], [ -78.576666666666668, 41.42 ] ] ] } },
{ "type": "Feature", "properties": { "crd_id": "PA20", "crd_name": "PA District 20", "state": "PA" }, "geometry": { "type": "Polygon", "coordinates": [ [ [ -76.63333333333334, 41.42 ], [ -76.63333333333334, 42.27 ], [ -78.576666666666668, 42.27 ], [ -78.576666666666668, 41.42 ], [ -76.63333333333334, 41.42 ] ] ] } },
{ "type": "Feature", "properties": { "crd_id": "PA30", "crd_name": "PA District 30", "state": "PA" }, "geometry": { "type": "Polygon", "coordinates": [ [ [ -74.69, 41.42 ], [ -74.69, 42.27 ], [ -76.633333333333326, 42.27 ], [ -76.633333333333326, 41.42 ], [ -74.69, 41.42 ] ] ] } },
{ "type": "Feature", "properties": { "crd_id": "PA40", "crd_name": "PA District 40", "state": "PA" }, "geometry": { "type": "Polygon", "coordinates": [ [ [ -78.576666666666668, 40.57 ], [ -78.576666666666668, 41.42 ], [ -80.52, 41.42 ], [ -80.52, 40.57 ], [ -78.576666666666668, 40.57 ] ] ] } },
{ "type": "Feature", "properties": { "crd_id": "PA50", "crd_name": "PA District 50", "state": "PA" }, "geometry": { "type": "Polygon", "coordinates": [ [ [ -76.63333333333334, 40.57 ], [ -76.63333333333334, 41.42 ], [ -78.576666666666668, 41.42 ], [ -78.576666666666668, 40.57 ], [ -76.63333333333334, 40.57 ] ] ] } },
{ "type": "Feature", "properties": { "crd_id": "PA60", "crd_name": "PA District 60", "state": "PA" }, "geometry": { "type": "Polygon", "coordinates": [ [ [ -74.69, 40.57 ], [ -74.69, 41.42 ], [ -76.633333333333326, 41.42 ], [ -76.633333333333326, 40.57 ], [ -74.69, 40.57 ] ] ] } },
{ "type": "Feature", "properties": { "crd_id": "PA70", "crd_name": "PA District 70", "state": "PA" }, "geometry": { "type": "Polygon", "coordinates": [ [ [ -78.576666666666668, 39.72 ], [ -78.576666666666668, 40.57 ], [ -80.52, 40.57 ], [ -80.52, 39.72 ], [ -78.576666666666668, 39.72 ] ] ] } },
{ "type": "Feature", "properties": { "crd_id": "PA80", "crd_name": "PA District 80", "state": "PA" }, "geometry": { "type": "Polygon", "coordinates": [ [ [ -76.63333333333334, 39.72 ], [ -76.63333333333334, 40.57 ], [ -78.576666666666668, 40.57 ], [ -78.576666666666668, 39.72 ], [ -76.63333333333334, 39.72 ] ] ] } },
{ "type": "Feature", "properties": { "crd_id": "PA90", "crd_name": "PA District 90", "state": "PA" }, "geometry": { "type": "Polygon", "coordinates": [ [ [ -74.69, 39.72 ], [ -74.69, 40.57 ], [ -76.633333333333326, 40.57 ], [ -76.633333333333326, 39.72 ], [ -74.69, 39.72 ] ] ] } },
{ "type": "Feature", "properties": { "crd_id": "AR10", "crd_name": "AR District 10", "state": "AR" }, "geometry": { "type": "Polygon", "coordinates": [ [ [ -92.96, 35.333333333333336 ], [ -92.96, 36.5 ], [ -94.62, 36.5 ], [ -94.62, 35.333333333333336 ], [ -92.96, 35.333333333333336 ] ] ] } },
{ "type": "Feature", "properties": { "crd_id": "AR20", "crd_name": "AR District 20", "state": "AR" }, "geometry": { "type": "Polygon", "coordinates": [ [ [ -91.3, 35.333333333333336 ], [ -91.3, 36.5 ], [ -92.96, 36.5 ], [ -92.96, 35.333333333333336 ], [ -91.3, 35.333333333333336 ] ] ] } },
{ "type": "Feature", "properties": { "crd_id": "AR30", "crd_name": "AR District 30", "state": "AR" }, "geometry": { "type": "Polygon", "coordinates": [ [ [ -89.64, 35.333333333333336 ], [ -89.64, 36.5 ], [ -91.3, 36.5 ], [ -91.3, 35.333333333333336 ], [ -89.64, 35.333333333333336 ] ] ] } },
{ "type": "Feature", "properties": { "crd_id": "AR40", "crd_name": "AR District 40", "state": "AR" }, "geometry": { "type": "Polygon", "coordinates": [ [ [ -92.96, 34.166666666666664 ], [ -92.96, 35.333333333333329 ], [ -94.62, 35.333333333333329 ], [ -94.62, 34.166666666666664 ], [ -92.96, 34.166666666666664 ] ] ] } },
{ "type": "Feature", "properties": { "crd_id": "AR50", "crd_name": "AR District 50", "state": "AR" }, "geometry": { "type": "Polygon", "coordinates": [ [ [ -91.3, 34.166666666666664 ], [ -91.3, 35.333333333333329 ], [ -92.96, 35.333333333333329 ], [ -92.96, 34.166666666666664 ], [ -91.3, 34.166666666666664 ] ] ] } },
{ "type": "Feature", "properties": { "crd_id": "AR60", "crd_name": "AR District 60", "state": "AR" }, "geometry": { "type": "Polygon", "coordinates": [ [ [ -89.64, 34.166666666666664 ], [ -89.64, 35.333333333333329 ], [ -91.3, 35.333333333333329 ], [ -91.3, 34.166666666666664 ], [ -89.64, 34.166666666666664 ] ] ] } },
{ "type": "Feature", "properties": { "crd_id": "AR70", "crd_name": "AR District 70", "state": "AR" }, "geometry": { "type": "Polygon", "coordinates": [ [ [ -92.96, 33.0 ], [ -92.96, 34.166666666666664 ], [ -94.62, 34.166666666666664 ], [ -94.62, 33.0 ], [ -92.96, 33.0 ] ] ] } },
{ "type": "Feature", "properties": { "crd_id": "AR80", "crd_name": "AR District 80", "state": "AR" }, "geometry": { "type": "Polygon", "coordinates": [ [ [ -91.3, 33.0 ], [ -91.3, 34.166666666666664 ], [ -92.96, 34.166666666666664 ], [ -92.96, 33.0 ], [ -91.3, 33.0 ] ] ] } },
{ "type": "Feature", "properties": { "crd_id": "AR90", "crd_name": "AR District 90", "state": "AR" }, "geometry": { "type": "Polygon", "coordinates": [ [ [ -89.64, 33.0 ], [ -89.64, 34.166666666666664 ], [ -91.3, 34.166666666666664 ], [ -91.3, 33.0 ], [ -89.64, 33.0 ] ] ] } },
{ "type": "Feature", "properties": { "crd_id": "MS10", "crd_name": "MS District 10", "state": "MS" }, "geometry": { "type": "Polygon", "coordinates": [ [ [ -90.466666666666669, 33.39 ], [ -90.466666666666669, 35.0 ], [ -91.65, 35.0 ], [ -91.65, 33.39 ], [ -90.466666666666669, 33.39 ] ] ] } },
{ "type": "Feature", "properties": { "crd_id": "MS20", "crd_name": "MS District 20", "state": "MS" }, "geometry": { "type": "Polygon", "coordinates": [ [ [ -89.283333333333331, 33.39 ], [ -89.283333333333331, 35.0 ], [ -90.466666666666669, 35.0 ], [ -90.466666666666669, 33.39 ], [ -89.283333333333331, 33.39 ] ] ] } },
{ "type": "Feature", "properties": { "crd_id": "MS30", "crd_name": "MS District 30", "state": "MS" }, "geometry": { "type": "Polygon", "coordinates": [ [ [ -88.1, 33.39 ], [ -88.1, 35.0 ], [ -89.283333333333331, 35.0 ], [ -89.283333333333331, 33.39 ], [ -88.1, 33.39 ] ] ] } },
{ "type": "Feature", "properties": { "crd_id": "MS40", "crd_name": "MS District 40", "state": "MS" }, "geometry": { "type": "Polygon", "coordinates": [ [ [ -90.466666666666669, 31.78 ], [ -90.466666666666669, 33.39 ], [ -91.65, 33.39 ], [ -91.65, 31.78 ], [ -90.466666666666669, 31.78 ] ] ] } },
{ "type": "Feature", "properties": { "crd_id": "MS50", "crd_name": "MS District 50", "state": "MS" }, "geometry": { "type": "Polygon", "coordinates": [ [ [ -89.283333333333331, 31.78 ], [ -89.283333333333331, 33.39 ], [ -90.466666666666669, 33.39 ], [ -90.466666666666669, 31.78 ], [ -89.283333333333331, 31.78 ] ] ] } },
{ "type": "Feature", "properties": { "crd_id": "MS60", "crd_name": "MS District 60", "state": "MS" }, "geometry": { "type": "Polygon", "coordinates": [ [ [ -88.1, 31.78 ], [ -88.1, 33.39 ], [ -89.283333333333331, 33.39 ], [ -89.283333333333331, 31.78 ], [ -88.1, 31.78 ] ] ] } },
{ "type": "Feature", "properties": { "crd_id": "MS70", "crd_name": "MS District 70", "state": "MS" }, "geometry": { "type": "Polygon", "coordinates": [ [ [ -90.466666666666669, 30.17 ], [ -90.466666666666669, 31.78 ], [ -91.65, 31.78 ], [ -91.65, 30.17 ], [ -90.466666666666669, 30.17 ] ] ] } },
{ "type": "Feature", "properties": { "crd_id": "MS80", "crd_name": "MS District 80", "state": "MS" }, "geometry": { "type": "Polygon", "coordinates": [ [ [ -89.283333333333331, 30.17 ], [ -89.283333333333331, 31.78 ], [ -90.466666666666669, 31.78 ], [ -90.466666666666669, 30.17 ], [ -89.283333333333331, 30.17 ] ] ] } },
{ "type": "Feature", "properties": { "crd_id": "MS90", "crd_name": "MS District 90", "state": "MS" }, "geometry": { "type": "Polygon", "coordinates": [ [ [ -88.1, 30.17 ], [ -88.1, 31.78 ], [ -89.283333333333331, 31.78 ], [ -89.283333333333331, 30.17 ], [ -88.1, 30.17 ] ] ] } },
{ "type": "Feature", "properties": { "crd_id": "OK10", "crd_name": "OK District 10", "state": "OK" }, "geometry": { "type": "Polygon", "coordinates": [ [ [ -100.143333333333331, 35.873333333333335 ], [ -100.143333333333331, 37.0 ], [ -103.0, 37.0 ], [ -103.0, 35.873333333333335 ], [ -100.143333333333331, 35.873333333333335 ] ] ] } },
{ "type": "Feature", "properties": { "crd_id": "OK20", "crd_name": "OK District 20", "state": "OK" }, "geometry": { "type": "Polygon", "coordinates": [ [ [ -97.286666666666662, 35.873333333333335 ], [ -97.286666666666662, 37.0 ], [ -100.143333333333331, 37.0 ], [ -100.143333333333331, 35.873333333333335 ], [ -97.286666666666662, 35.873333333333335 ] ] ] } },
{ "type": "Feature", "properties": { "crd_id": "OK30", "crd_name": "OK District 30", "state": "OK" }, "geometry": { "type": "Polygon", "coordinates": [ [ [ -94.43, 35.873333333333335 ], [ -94.43, 37.0 ], [ -97.286666666666676, 37.0 ], [ -97.286666666666676, 35.873333333333335 ], [ -94.43, 35.873333333333335 ] ] ] } },
{ "type": "Feature", "properties": { "crd_id": "OK40", "crd_name": "OK District 40", "state": "OK" }, "geometry": { "type": "Polygon", "coordinates": [ [ [ -100.143333333333331, 34.746666666666663 ], [ -100.143333333333331, 35.873333333333328 ], [ -103.0, 35.873333333333328 ], [ -103.0, 34.746666666666663 ], [ -100.143333333333331, 34.746666666666663 ] ] ] } },
{ "type": "Feature", "properties": { "crd_id": "OK50", "crd_name": "OK District 50", "state": "OK" }, "geometry": { "type": "Polygon", "coordinates": [ [ [ -97.286666666666662, 34.746666666666663 ], [ -97.286666666666662, 35.873333333333328 ], [ -100.143333333333331, 35.873333333333328 ], [ -100.143333333333331, 34.746666666666663 ], [ -97.286666666666662, 34.746666666666663 ] ] ] } },
{ "type": "Feature", "properties": { "crd_id": "OK60", "crd_name": "OK District 60", "state": "OK" }, "geometry": { "type": "Polygon", "coordinates": [ [ [ -94.43, 34.746666666666663 ], [ -94.43, 35.873333333333328 ], [ -97.286666666666676, 35.873333333333328 ], [ -97.286666666666676, 34.746666666666663 ], [ -94.43, 34.746666666666663 ] ] ] } },
{ "type": "Feature", "properties": { "crd_id": "OK70", "crd_name": "OK District 70", "state": "OK" }, "geometry": { "type": "Polygon", "coordinates": [ [ [ -100.143333333333331, 33.62 ], [ -100.143333333333331, 34.746666666666663 ], [ -103.0, 34.746666666666663 ], [ -103.0, 33.62 ], [ -100.143333333333331, 33.62 ] ] ] } },
{ "type": "Feature", "properties": { "crd_id": "OK80", "crd_name": "OK District 80", "state": "OK" }, "geometry": { "type": "Polygon", "coordinates": [ [ [ -97.286666666666662, 33.62 ], [ -97.286666666666662, 34.746666666666663 ], [ -100.143333333333331, 34.746666666666663 ], [ -100.143333333333331, 33.62 ], [ -97.286666666666662, 33.62 ] ] ] } },
{ "type": "Feature", "properties": { "crd_id": "OK90", "crd_name": "OK District 90", "state": "OK" }, "geometry": { "type": "Polygon", "coordinates": [ [ [ -94.43, 33.62 ], [ -94.43, 34.746666666666663 ], [ -97.286666666666676, 34.746666666666663 ], [ -97.286666666666676, 33.62 ], [ -94.43, 33.62 ] ] ] } },
{ "type": "Feature", "properties": { "crd_id": "TX10", "crd_name": "TX District 10", "state": "TX" }, "geometry": { "type": "Polygon", "coordinates": [ [ [ -102.27, 32.946666666666665 ], [ -102.27, 36.5 ], [ -106.65, 36.5 ], [ -106.65, 32.946666666666665 ], [ -102.27, 32.946666666666665 ] ] ] } },
{ "type": "Feature", "properties": { "crd_id": "TX20", "crd_name": "TX District 20", "state": "TX" }, "geometry": { "type": "Polygon", "coordinates": [ [ [ -97.89, 32.946666666666665 ], [ -97.89, 36.5 ], [ -102.27, 36.5 ], [ -102.27, 32.946666666666665 ], [ -97.89, 32.946666666666665 ] ] ] } },
{ "type": "Feature", "properties": { "crd_id": "TX30", "crd_name": "TX District 30", "state": "TX" }, "geometry": { "type": "Polygon", "coordinates": [ [ [ -93.51, 32.946666666666665 ], [ -93.51, 36.5 ], [ -97.89, 36.5 ], [ -97.89, 32.946666666666665 ], [ -93.51, 32.946666666666665 ] ] ] } },
{ "type": "Feature", "properties": { "crd_id": "TX40", "crd_name": "TX District 40", "state": "TX" }, "geometry": { "type": "Polygon", "coordinates": [ [ [ -102.27, 29.393333333333334 ], [ -102.27, 32.946666666666665 ], [ -106.65, 32.946666666666665 ], [ -106.65, 29.393333333333334 ], [ -102.27, 29.393333333333334 ] ] ] } },
{ "type": "Feature", "properties": { "crd_id": "TX50", "crd_name": "TX District 50", "state": "TX" }, "geometry": { "type": "Polygon", "coordinates": [ [ [ -97.89, 29.393333333333334 ], [ -97.89, 32.946666666666665 ], [ -102.27, 32.946666666666665 ], [ -102.27, 29.393333333333334 ], [ -97.89, 29.393333333333334 ] ] ] } },
{ "type": "Feature", "properties": { "crd_id": "TX60", "crd_name": "TX District 60", "state": "TX" }, "geometry": { "type": "Polygon", "coordinates": [ [ [ -93.51, 29.393333333333334 ], [ -93.51, 32.946666666666665 ], [ -97.89, 32.946666666666665 ], [ -97.89, 29.393333333333334 ], [ -93.51, 29.393333333333334 ] ] ] } },
{ "type": "Feature", "properties": { "crd_id": "TX70", "crd_name": "TX District 70", "state": "TX" }, "geometry": { "type": "Polygon", "coordinates": [ [ [ -102.27, 25.84 ], [ -102.27, 29.393333333333334 ], [ -106.65, 29.393333333333334 ], [ -106.65, 25.84 ], [ -102.27, 25.84 ] ] ] } },
{ "type": "Feature", "properties": { "crd_id": "TX80", "crd_name": "TX District 80", "state": "TX" }, "geometry": { "type": "Polygon", "coordinates": [ [ [ -97.89, 25.84 ], [ -97.89, 29.393333333333334 ], [ -102.27, 29.393333333333334 ], [ -102.27, 25.84 ], [ -97.89, 25.84 ] ] ] } },
{ "type": "Feature", "properties": { "crd_id": "TX90", "crd_name": "TX District 90", "state": "TX" }, "geometry": { "type": "Polygon", "coordinates": [ [ [ -93.51, 25.84 ], [ -93.51, 29.393333333333334 ], [ -97.89, 29.393333333333334 ], [ -97.89, 25.84 ], [ -93.51, 25.84 ] ] ] } },
{ "type": "Feature", "properties": { "crd_id": "CO10", "crd_name": "CO District 10", "state": "CO" }, "geometry": { "type": "Polygon", "coordinates": [ [ [ -106.713333333333338, 39.663333333333334 ], [ -106.713333333333338, 41.0 ], [ -109.05, 41.0 ], [ -109.05, 39.663333333333334 ], [ -106.713333333333338, 39.663333333333334 ] ] ] } },
{ "type": "Feature", "properties": { "crd_id": "CO20", "crd_name": "CO District 20", "state": "CO" }, "geometry": { "type": "Polygon", "coordinates": [ [ [ -104.376666666666679, 39.663333333333334 ], [ -104.376666666666679, 41.0 ], [ -106.713333333333338, 41.0 ], [ -106.713333333333338, 39.663333333333334 ], [ -104.376666666666679, 39.663333333333334 ] ] ] } },
{ "type": "Feature", "properties": { "crd_id": "CO30", "crd_name": "CO District 30", "state": "CO" }, "geometry": { "type": "Polygon", "coordinates": [ [ [ -102.04, 39.663333333333334 ], [ -102.04, 41.0 ], [ -104.376666666666665, 41.0 ], [ -104.376666666666665, 39.663333333333334 ], [ -102.04, 39.663333333333334 ] ] ] } },
{ "type": "Feature", "properties": { "crd_id": "CO40", "crd_name": "CO District 40", "state": "CO" }, "geometry": { "type": "Polygon", "coordinates": [ [ [ -106.713333333333338, 38.326666666666668 ], [ -106.713333333333338, 39.663333333333334 ], [ -109.05, 39.663333333333334 ], [ -109.05, 38.326666666666668 ], [ -106.713333333333338, 38.326666666666668 ] ] ] } },
{ "type": "Feature", "properties": { "crd_id": "CO50", "crd_name": "CO District 50", "state": "CO" }, "geometry": { "type": "Polygon", "coordinates": [ [ [ -104.376666666666679, 38.326666666666668 ], [ -104.376666666666679, 39.663333333333334 ], [ -106.713333333333338, 39.663333333333334 ], [ -106.713333333333338, 38.326666666666668 ], [ -104.376666666666679, 38.326666666666668 ] ] ] } },
{ "type": "Feature", "properties": { "crd_id": "CO60", "crd_name": "CO District 60", "state": "CO" }, "geometry": { "type": "Polygon", "coordinates": [ [ [ -102.04, 38.326666666666668 ], [ -102.04, 39.663333333333334 ], [ -104.376666666666665, 39.663333333333334 ], [ -104.376666666666665, 38.326666666666668 ], [ -102.04, 38.326666666666668 ] ] ] } },
{ "type": "Feature", "properties": { "crd_id": "CO70", "crd_name": "CO District 70", "state": "CO" }, "geometry": { "type": "Polygon", "coordinates": [ [ [ -106.713333333333338, 36.99 ], [ -106.713333333333338, 38.326666666666668 ], [ -109.05, 38.326666666666668 ], [ -109.05, 36.99 ], [ -106.713333333333338, 36.99 ] ] ] } },
{ "type": "Feature", "properties": { "crd_id": "CO80", "crd_name": "CO District 80", "state": "CO" }, "geometry": { "type": "Polygon", "coordinates": [ [ [ -104.376666666666679, 36.99 ], [ -104.376666666666679, 38.326666666666668 ], [ -106.713333333333338, 38.326666666666668 ], [ -106.713333333333338, 36.99 ], [ -104.376666666666679, 36.99 ] ] ] } },
{ "type": "Feature", "properties": { "crd_id": "CO90", "crd_name": "CO District 90", "state": "CO" }, "geometry": { "type": "Polygon", "coordinates": [ [ [ -102.04, 36.99 ], [ -102.04, 38.326666666666668 ], [ -104.376666666666665, 38.326666666666668 ], [ -104.376666666666665, 36.99 ], [ -102.04, 36.99 ] ] ] } },
{ "type": "Feature", "properties": { "crd_id": "MT10", "crd_name": "MT District 10", "state": "MT" }, "geometry": { "type": "Polygon", "coordinates": [ [ [ -112.046666666666667, 47.453333333333333 ], [ -112.046666666666667, 49.0 ], [ -116.05, 49.0 ], [ -116.05, 47.453333333333333 ], [ -112.046666666666667, 47.453333333333333 ] ] ] } },
{ "type": "Feature", "properties": { "crd_id": "MT20", "crd_name": "MT District 20", "state": "MT" }, "geometry": { "type": "Polygon", "coordinates": [ [ [ -108.043333333333337, 47.453333333333333 ], [ -108.043333333333337, 49.0 ], [ -112.046666666666667, 49.0 ], [ -112.046666666666667, 47.453333333333333 ], [ -108.043333333333337, 47.453333333333333 ] ] ] } },
{ "type": "Feature", "properties": { "crd_id": "MT30", "crd_name": "MT District 30", "state": "MT" }, "geometry": { "type": "Polygon", "coordinates": [ [ [ -104.04, 47.453333333333333 ], [ -104.04, 49.0 ], [ -108.043333333333337, 49.0 ], [ -108.043333333333337, 47.453333333333333 ], [ -104.04, 47.453333333333333 ] ] ] } },
{ "type": "Feature", "properties": { "crd_id": "MT40", "crd_name": "MT District 40", "state": "MT" }, "geometry": { "type": "Polygon", "coordinates": [ [ [ -112.046666666666667, 45.906666666666666 ], [ -112.046666666666667, 47.453333333333333 ], [ -116.05, 47.453333333333333 ], [ -116.05, 45.906666666666666 ], [ -112.046666666666667, 45.906666666666666 ] ] ] } },
{ "type": "Feature", "properties": { "crd_id": "MT50", "crd_name": "MT District 50", "state": "MT" }, "geometry": { "type": "Polygon", "coordinates": [ [ [ -108.043333333333337, 45.906666666666666 ], [ -108.043333333333337, 47.453333333333333 ], [ -112.046666666666667, 47.453333333333333 ], [ -112.046666666666667, 45.906666666666666 ], [ -108.043333333333337, 45.906666666666666 ] ] ] } },
{ "type": "Feature", "properties": { "crd_id": "MT60", "crd_name": "MT District 60", "state": "MT" }, "geometry": { "type": "Polygon", "coordinates": [ [ [ -104.04, 45.906666666666666 ], [ -104.04, 47.453333333333333 ], [ -108.043333333333337, 47.453333333333333 ], [ -108.043333333333337, 45.906666666666666 ], [ -104.04, 45.906666666666666 ] ] ] } },
{ "type": "Feature", "properties": { "crd_id": "MT70", "crd_name": "MT District 70", "state": "MT" }, "geometry": { "type": "Polygon", "coordinates": [ [ [ -112.046666666666667, 44.36 ], [ -112.046666666666667, 45.906666666666666 ], [ -116.05, 45.906666666666666 ], [ -116.05, 44.36 ], [ -112.046666666666667, 44.36 ] ] ] } },
{ "type": "Feature", "properties": { "crd_id": "MT80", "crd_name": "MT District 80", "state": "MT" }, "geometry": { "type": "Polygon", "coordinates": [ [ [ -108.043333333333337, 44.36 ], [ -108.043333333333337, 45.906666666666666 ], [ -112.046666666666667, 45.906666666666666 ], [ -112.046666666666667, 44.36 ], [ -108.043333333333337, 44.36 ] ] ] } },
{ "type": "Feature", "properties": { "crd_id": "MT90", "crd_name": "MT District 90", "state": "MT" }, "geometry": { "type": "Polygon", "coordinates": [ [ [ -104.04, 44.36 ], [ -104.04, 45.906666666666666 ], [ -108.043333333333337, 45.906666666666666 ], [ -108.043333333333337, 44.36 ], [ -104.04, 44.36 ] ] ] } },
{ "type": "Feature", "properties": { "crd_id": "WA10", "crd_name": "WA District 10", "state": "WA" }, "geometry": { "type": "Polygon", "coordinates": [ [ [ -122.126666666666665, 47.846666666666664 ], [ -122.126666666666665, 49.0 ], [ -124.73, 49.0 ], [ -124.73, 47.846666666666664 ], [ -122.126666666666665, 47.846666666666664 ] ] ] } },
{ "type": "Feature", "properties": { "crd_id": "WA20", "crd_name": "WA District 20", "state": "WA" }, "geometry": { "type": "Polygon", "coordinates": [ [ [ -119.523333333333326, 47.846666666666664 ], [ -119.523333333333326, 49.0 ], [ -122.126666666666665, 49.0 ], [ -122.126666666666665, 47.846666666666664 ], [ -119.523333333333326, 47.846666666666664 ] ] ] } },
{ "type": "Feature", "properties": { "crd_id": "WA30", "crd_name": "WA District 30", "state": "WA" }, "geometry": { "type": "Polygon", "coordinates": [ [ [ -116.92, 47.846666666666664 ], [ -116.92, 49.0 ], [ -119.523333333333341, 49.0 ], [ -119.523333333333341, 47.846666666666664 ], [ -116.92, 47.846666666666664 ] ] ] } },
{ "type": "Feature", "properties": { "crd_id": "WA40", "crd_name": "WA District 40", "state": "WA" }, "geometry": { "type": "Polygon", "coordinates": [ [ [ -122.126666666666665, 46.693333333333335 ], [ -122.126666666666665, 47.846666666666671 ], [ -124.73, 47.846666666666671 ], [ -124.73, 46.693333333333335 ], [ -122.126666666666665, 46.693333333333335 ] ] ] } },
{ "type": "Feature", "properties": { "crd_id": "WA50", "crd_name": "WA District 50", "state": "WA" }, "geometry": { "type": "Polygon", "coordinates": [ [ [ -119.523333333333326, 46.693333333333335 ], [ -119.523333333333326, 47.846666666666671 ], [ -122.126666666666665, 47.846666666666671 ], [ -122.126666666666665, 46.693333333333335 ], [ -119.523333333333326, 46.693333333333335 ] ] ] } },
{ "type": "Feature", "properties": { "crd_id": "WA60", "crd_name": "WA District 60", "state": "WA" }, "geometry": { "type": "Polygon", "coordinates": [ [ [ -116.92, 46.693333333333335 ], [ -116.92, 47.846666666666671 ], [ -119.523333333333341, 47.846666666666671 ], [ -119.523333333333341, 46.693333333333335 ], [ -116.92, 46.693333333333335 ] ] ] } },
{ "type": "Feature", "properties": { "crd_id": "WA70", "crd_name": "WA District 70", "state": "WA" }, "geometry": { "type": "Polygon", "coordinates": [ [ [ -122.126666666666665, 45.54 ], [ -122.126666666666665, 46.693333333333335 ], [ -124.73, 46.693333333333335 ], [ -124.73, 45.54 ], [ -122.126666666666665, 45.54 ] ] ] } },
{ "type": "Feature", "properties": { "crd_id": "WA80", "crd_name": "WA District 80", "state": "WA" }, "geometry": { "type": "Polygon", "coordinates": [ [ [ -119.523333333333326, 45.54 ], [ -119.523333333333326, 46.693333333333335 ], [ -122.126666666666665, 46.693333333333335 ], [ -122.126666666666665, 45.54 ], [ -119.523333333333326, 45.54 ] ] ] } },
{ "type": "Feature", "properties": { "crd_id": "WA90", "crd_name": "WA District 90", "state": "WA" }, "geometry": { "type": "Polygon", "coordinates": [ [ [ -116.92, 45.54 ], [ -116.92, 46.693333333333335 ], [ -119.523333333333341, 46.693333333333335 ], [ -119.523333333333341, 45.54 ], [ -116.92, 45.54 ] ] ] } },
{ "type": "Feature", "properties": { "crd_id": "OR10", "crd_name": "OR District 10", "state": "OR" }, "geometry": { "type": "Polygon", "coordinates": [ [ [ -121.86666666666666, 44.823333333333338 ], [ -121.86666666666666, 46.24 ], [ -124.57, 46.24 ], [ -124.57, 44.823333333333338 ], [ -121.86666666666666, 44.823333333333338 ] ] ] } },
{ "type": "Feature", "properties": { "crd_id": "OR20", "crd_name": "OR District 20", "state": "OR" }, "geometry": { "type": "Polygon", "coordinates": [ [ [ -119.163333333333327, 44.823333333333338 ], [ -119.163333333333327, 46.24 ], [ -121.86666666666666, 46.24 ], [ -121.86666666666666, 44.823333333333338 ], [ -119.163333333333327, 44.823333333333338 ] ] ] } },
{ "type": "Feature", "properties": { "crd_id": "OR30", "crd_name": "OR District 30", "state": "OR" }, "geometry": { "type": "Polygon", "coordinates": [ [ [ -116.46, 44.823333333333338 ], [ -116.46, 46.24 ], [ -119.163333333333327, 46.24 ], [ -119.163333333333327, 44.823333333333338 ], [ -116.46, 44.823333333333338 ] ] ] } },
{ "type": "Feature", "properties": { "crd_id": "OR40", "crd_name": "OR District 40", "state": "OR" }, "geometry": { "type": "Polygon", "coordinates": [ [ [ -121.86666666666666, 43.406666666666666 ], [ -121.86666666666666, 44.823333333333331 ], [ -124.57, 44.823333333333331 ], [ -124.57, 43.406666666666666 ], [ -121.86666666666666, 43.406666666666666 ] ] ] } },
{ "type": "Feature", "properties": { "crd_id": "OR50", "crd_name": "OR District 50", "state": "OR" }, "geometry": { "type": "Polygon", "coordinates": [ [ [ -119.163333333333327, 43.406666666666666 ], [ -119.163333333333327, 44.823333333333331 ], [ -121.86666666666666, 44.823333333333331 ], [ -121.86666666666666, 43.406666666666666 ], [ -119.163333333333327, 43.406666666666666 ] ] ] } },
{ "type": "Feature", "properties": { "crd_id": "OR60", "crd_name": "OR District 60", "state": "OR" }, "geometry": { "type": "Polygon", "coordinates": [ [ [ -116.46, 43.406666666666666 ], [ -116.46, 44.823333333333331 ], [ -119.163333333333327, 44.823333333333331 ], [ -119.163333333333327, 43.406666666666666 ], [ -116.46, 43.406666666666666 ] ] ] } },
{ "type": "Feature", "properties": { "crd_id": "OR70", "crd_name": "OR District 70", "state": "OR" }, "geometry": { "type": "Polygon", "coordinates": [ [ [ -121.86666666666666, 41.99 ], [ -121.86666666666666, 43.406666666666666 ], [ -124.57, 43.406666666666666 ], [ -124.57, 41.99 ], [ -121.86666666666666, 41.99 ] ] ] } },
{ "type": "Feature", "properties": { "crd_id": "OR80", "crd_name": "OR District 80", "state": "OR" }, "geometry": { "type": "Polygon", "coordinates": [ [ [ -119.163333333333327, 41.99 ], [ -119.163333333333327, 43.406666666666666 ], [ -121.86666666666666, 43.406666666666666 ], [ -121.86666666666666, 41.99 ], [ -119.163333333333327, 41.99 ] ] ] } },
{ "type": "Feature", "properties": { "crd_id": "OR90", "crd_name": "OR District 90", "state": "OR" }, "geometry": { "type": "Polygon", "coordinates": [ [ [ -116.46, 41.99 ], [ -116.46, 43.406666666666666 ], [ -119.163333333333327, 43.406666666666666 ], [ -119.163333333333327, 41.99 ], [ -116.46, 41.99 ] ] ] } },
{ "type": "Feature", "properties": { "crd_id": "ID10", "crd_name": "ID District 10", "state": "ID" }, "geometry": { "type": "Polygon", "coordinates": [ [ [ -115.173333333333332, 46.663333333333334 ], [ -115.173333333333332, 49.0 ], [ -117.24, 49.0 ], [ -117.24, 46.663333333333334 ], [ -115.173333333333332, 46.663333333333334 ] ] ] } },
{ "type": "Feature", "properties": { "crd_id": "ID20", "crd_name": "ID District 20", "state": "ID" }, "geometry": { "type": "Polygon", "coordinates": [ [ [ -113.106666666666669, 46.663333333333334 ], [ -113.106666666666669, 49.0 ], [ -115.173333333333332, 49.0 ], [ -115.173333333333332, 46.663333333333334 ], [ -113.106666666666669, 46.663333333333334 ] ] ] } },
{ "type": "Feature", "properties": { "crd_id": "ID30", "crd_name": "ID District 30", "state": "ID" }, "geometry": { "type": "Polygon", "coordinates": [ [ [ -111.04, 46.663333333333334 ], [ -111.04, 49.0 ], [ -113.106666666666669, 49.0 ], [ -113.106666666666669, 46.663333333333334 ], [ -111.04, 46.663333333333334 ] ] ] } },
{ "type": "Feature", "properties": { "crd_id": "ID40", "crd_name": "ID District 40", "state": "ID" }, "geometry": { "type": "Polygon", "coordinates": [ [ [ -115.173333333333332, 44.326666666666668 ], [ -115.173333333333332, 46.663333333333334 ], [ -117.24, 46.663333333333334 ], [ -117.24, 44.326666666666668 ], [ -115.173333333333332, 44.326666666666668 ] ] ] } },
{ "type": "Feature", "properties": { "crd_id": "ID50", "crd_name": "ID District 50", "state": "ID" }, "geometry": { "type": "Polygon", "coordinates": [ [ [ -113.106666666666669, 44.326666666666668 ], [ -113.106666666666669, 46.663333333333334 ], [ -115.173333333333332, 46.663333333333334 ], [ -115.173333333333332, 44.326666666666668 ], [ -113.106666666666669, 44.326666666666668 ] ] ] } },
{ "type": "Feature", "properties": { "crd_id": "ID60", "crd_name": "ID District 60", "state": "ID" }, "geometry": { "type": "Polygon", "coordinates": [ [ [ -111.04, 44.326666666666668 ], [ -111.04, 46.663333333333334 ], [ -113.106666666666669, 46.663333333333334 ], [ -113.106666666666669, 44.326666666666668 ], [ -111.04, 44.326666666666668 ] ] ] } },
{ "type": "Feature", "properties": { "crd_id": "ID70", "crd_name": "ID District 70", "state": "ID" }, "geometry": { "type": "Polygon", "coordinates": [ [ [ -115.173333333333332, 41.99 ], [ -115.173333333333332, 44.326666666666668 ], [ -117.24, 44.326666666666668 ], [ -117.24, 41.99 ], [ -115.173333333333332, 41.99 ] ] ] } },
{ "type": "Feature", "properties": { "crd_id": "ID80", "crd_name": "ID District 80", "state": "ID" }, "geometry": { "type": "Polygon", "coordinates": [ [ [ -113.106666666666669, 41.99 ], [ -113.106666666666669, 44.326666666666668 ], [ -115.173333333333332, 44.326666666666668 ], [ -115.173333333333332, 41.99 ], [ -113.106666666666669, 41.99 ] ] ] } },
{ "type": "Feature", "properties": { "crd_id": "ID90", "crd_name": "ID District 90", "state": "ID" }, "geometry": { "type": "Polygon", "coordinates": [ [ [ -111.04, 41.99 ], [ -111.04, 44.326666666666668 ], [ -113.106666666666669, 44.326666666666668 ], [ -113.106666666666669, 41.99 ], [ -111.04, 41.99 ] ] ] } },
{ "type": "Feature", "properties": { "crd_id": "WY10", "crd_name": "WY District 10", "state": "WY" }, "geometry": { "type": "Polygon", "coordinates": [ [ [ -108.716666666666669, 43.67 ], [ -108.716666666666669, 45.01 ], [ -111.05, 45.01 ], [ -111.05, 43.67 ], [ -108.716666666666669, 43.67 ] ] ] } },
{ "type": "Feature", "properties": { "crd_id": "WY20", "crd_name": "WY District 20", "state": "WY" }, "geometry": { "type": "Polygon", "coordinates": [ [ [ -106.38333333333334, 43.67 ], [ -106.38333333333334, 45.01 ], [ -108.716666666666669, 45.01 ], [ -108.716666666666669, 43.67 ], [ -106.38333333333334, 43.67 ] ] ] } },
{ "type": "Feature", "properties": { "crd_id": "WY30", "crd_name": "WY District 30", "state": "WY" }, "geometry": { "type": "Polygon", "coordinates": [ [ [ -104.05, 43.67 ], [ -104.05, 45.01 ], [ -106.383333333333326, 45.01 ], [ -106.383333333333326, 43.67 ], [ -104.05, 43.67 ] ] ] } },
{ "type": "Feature", "properties": { "crd_id": "WY40", "crd_name": "WY District 40", "state": "WY" }, "geometry": { "type": "Polygon", "coordinates": [ [ [ -108.716666666666669, 42.33 ], [ -108.716666666666669, 43.67 ], [ -111.05, 43.67 ], [ -111.05, 42.33 ], [ -108.716666666666669, 42.33 ] ] ] } },
{ "type": "Feature", "properties": { "crd_id": "WY50", "crd_name": "WY District 50", "state": "WY" }, "geometry": { "type": "Polygon", "coordinates": [ [ [ -106.38333333333334, 42.33 ], [ -106.38333333333334, 43.67 ], [ -108.716666666666669, 43.67 ], [ -108.716666666666669, 42.33 ], [ -106.38333333333334, 42.33 ] ] ] } },
{ "type": "Feature", "properties": { "crd_id": "WY60", "crd_name": "WY District 60", "state": "WY" }, "geometry": { "type": "Polygon", "coordinates": [ [ [ -104.05, 42.33 ], [ -104.05, 43.67 ], [ -106.383333333333326, 43.67 ], [ -106.383333333333326, 42.33 ], [ -104.05, 42.33 ] ] ] } },
{ "type": "Feature", "properties": { "crd_id": "WY70", "crd_name": "WY District 70", "state": "WY" }, "geometry": { "type": "Polygon", "coordinates": [ [ [ -108.716666666666669, 40.99 ], [ -108.716666666666669, 42.33 ], [ -111.05, 42.33 ], [ -111.05, 40.99 ], [ -108.716666666666669, 40.99 ] ] ] } },
{ "type": "Feature", "properties": { "crd_id": "WY80", "crd_name": "WY District 80", "state": "WY" }, "geometry": { "type": "Polygon", "coordinates": [ [ [ -106.38333333333334, 40.99 ], [ -106.38333333333334, 42.33 ], [ -108.716666666666669, 42.33 ], [ -108.716666666666669, 40.99 ], [ -106.38333333333334, 40.99 ] ] ] } },
{ "type": "Feature", "properties": { "crd_id": "WY90", "crd_name": "WY District 90", "state": "WY" }, "geometry": { "type": "Polygon", "coordinates": [ [ [ -104.05, 40.99 ], [ -104.05, 42.33 ], [ -106.383333333333326, 42.33 ], [ -106.383333333333326, 40.99 ], [ -104.05, 40.99 ] ] ] } }
]
}
